GSAT0215 (GALILEO 19)   
1 43055U 17079A   26167.42901799  .00000046  00000+0  00000+0 0  9992
2 43055  55.0735 221.5277 0003119 263.4417  96.6201  1.70474560 52972
GSAT0216 (GALILEO 20)   
1 43056U 17079B   26167.72016538  .00000044  00000+0  00000+0 0  9992
2 43056  55.0735 221.5196 0004376 276.2511  83.7948  1.70474620 52990
GSAT0217 (GALILEO 21)   
1 43057U 17079C   26166.18122907  .00000056  00000+0  00000+0 0  9993
2 43057  55.0707 221.5599 0004444 284.3881  75.6642  1.70474278 52959
GSAT0218 (GALILEO 22)   
1 43058U 17079D   26164.05497403  .00000061  00000+0  00000+0 0  9990
2 43058  55.0728 221.6159 0005024 272.4694  87.5720  1.70474471 52944
BEIDOU-3 M7             
1 43107U 18003A   26167.81356370 -.00000072  00000+0  00000+0 0  9990
2 43107  54.3287 302.3286 0004838  93.9693 266.0743  1.86227992 57345
BEIDOU-3 M8             
1 43108U 18003B   26168.29529280 -.00000073  00000+0  00000+0 0  9997
2 43108  54.3209 302.2934 0002552 261.7129  98.2480  1.86230892 57367
BEIDOU-3 M4             
1 43207U 18018A   26167.12742264 -.00000050  00000+0  00000+0 0  9998
2 43207  56.6499  63.1838 0007711  19.0983 340.9685  1.86230832 56720
BEIDOU-3 M3             
1 43208U 18018B   26167.19390163 -.00000050  00000+0  00000+0 0  9993
2 43208  56.6497  63.1857 0008704 341.1278  18.8782  1.86230678 56726
BEIDOU-3 M9             
1 43245U 18029A   26167.41170405 -.00000069  00000+0  00000+0 0  9996
2 43245  54.1945 299.9756 0001002 155.3230 204.6710  1.86227974 55889
BEIDOU-3 M10            
1 43246U 18029B   26167.88302684 -.00000070  00000+0  00000+0 0  9996
2 43246  54.1918 299.9862 0003800  39.8570 320.1615  1.86229082 55878
IRNSS-1I                
1 43286U 18035A   26166.83981681  .00000062  00000+0  00000+0 0  9991
2 43286  28.7520  74.2167 0017811 181.5598   5.5147  1.00272046 30064
COSMOS 2527 [GLONASS-M] 
1 43508U 18053A   26168.08468958 -.00000019  00000+0  00000+0 0  9997
2 43508  65.5775  73.9112 0006925 239.1203 120.8462  2.13102055 62271
BEIDOU-2 IGSO-7         
1 43539U 18057A   26166.92202744 -.00000027  00000+0  00000+0 0  9994
2 43539  55.1938 163.0687 0105067 238.0100 305.1025  1.00251416 29110
GSAT0221 (GALILEO 25)   
1 43564U 18060A   26167.47838924 -.00000087  00000+0  00000+0 0  9998
2 43564  57.1694 341.7994 0002608 304.1202  55.8507  1.70475890 49151
GSAT0222 (GALILEO 26)   
1 43565U 18060B   26168.28462566 -.00000089  00000+0  00000+0 0  9996
2 43565  57.1723 341.7813 0001968 249.2072 110.7658  1.70475682 49211
GSAT0219 (GALILEO 23)   
1 43566U 18060C   26167.33235302 -.00000086  00000+0  00000+0 0  9995
2 43566  57.1726 341.8084 0002038 324.7693  35.2133  1.70475853 49177
GSAT0220 (GALILEO 24)   
1 43567U 18060D   26167.55334142 -.00000087  00000+0  00000+0 0  9993
2 43567  57.1721 341.8022 0002137 311.2729  48.7042  1.70475554 49161
BEIDOU-3 M5             
1 43581U 18062A   26168.10708597  .00000060  00000+0  00000+0 0  9992
2 43581  54.0849 182.3064 0005640 289.3246  70.6458  1.86228804 53632
BEIDOU-3 M6             
1 43582U 18062B   26166.35970745  .00000083  00000+0  00000+0 0  9999
2 43582  54.0850 182.3554 0004918   8.9960 351.0582  1.86227634 53605
BEIDOU-3 M12            
1 43602U 18067A   26165.76115788  .00000093  00000+0  00000+0 0  9990
2 43602  54.1799 181.1228 0007735  29.8475 330.2441  1.86227714 53072
BEIDOU-3 M11            
1 43603U 18067B   26168.04402986  .00000061  00000+0  00000+0 0  9999
2 43603  54.1777 181.0088 0004471  12.8999 347.1406  1.86227157 53146
BEIDOU-3 M13            
1 43622U 18072A   26166.92498194 -.00000051  00000+0  00000+0 0  9997
2 43622  56.6234  62.7019 0007311 328.8537  31.1409  1.86231268 52639
BEIDOU-3 M14            
1 43623U 18072B   26167.86433090 -.00000051  00000+0  00000+0 0  9996
2 43623  56.6260  62.6651 0006189 359.6599   0.3805  1.86231280 52645
BEIDOU-3 M16            
1 43647U 18078A   26167.48269894 -.00000069  00000+0  00000+0 0  9994
2 43647  54.0908 300.0106 0007204  40.9988 319.0446  1.86232188 52141
BEIDOU-3 M15            
1 43648U 18078B   26165.46418844 -.00000068  00000+0  00000+0 0  9991
2 43648  54.0883 300.0818 0004204  57.5981 302.4264  1.86232267 52128
BEIDOU-3 G1             
1 43683U 18085A   26168.16897889 -.00000114  00000+0  00000+0 0  9990
2 43683   2.8677  97.3692 0008046 349.5379  39.3073  1.00270347 28065
COSMOS 2529 [GLONASS-M] 
1 43687U 18086A   26168.18116233  .00000064  00000+0  00000+0 0  9997
2 43687  64.2951 192.5947 0012042 256.3784 103.5427  2.13101982 59281
BEIDOU-3 M17            
1 43706U 18093A   26168.42222017  .00000058  00000+0  00000+0 0  9995
2 43706  54.1690 182.2880 0010176 292.0990 142.8043  1.86228332 51544
BEIDOU-3 M18            
1 43707U 18093B   26168.17380634  .00000060  00000+0  00000+0 0  9991
2 43707  54.1693 182.2886 0008017 320.4382  39.5343  1.86226651 51532
NAVSTAR 77 (USA 289)    
1 43873U 18109A   26168.19691387 -.00000016  00000+0  00000+0 0  9997
2 43873  55.6821  92.1861 0038156 197.9463 292.8370  2.00561495 55073
BEIDOU-3 IGSO-1         
1 44204U 19023A   26168.63495080 -.00000222  00000+0  00000+0 0  9992
2 44204  58.6955  37.6444 0025496 225.8169 349.0348  1.00291189  7213
